TOMORROW-S1             
1 60479U 24149M   26068.72470524  .00008620  00000+0  28856-3 0  9996
2 60479  97.3791 149.6044 0001819 207.2040 152.9106 15.31198362 86867
STARLINK-34542          
1 65890U 25224J   26068.05374502  .00016208  00000+0  55824-3 0  9994
2 65890  53.1620  14.5417 0001104  84.9948 275.1179 15.30194591 24777
